NORAD_CAT_ID,OBJECT_NAME,OBJECT_TYPE,EPOCH,MEAN_MOTION,ECCENTRICITY,INCLINATION,RA_OF_ASC_NODE,ARG_OF_PERICENTER,MEAN_ANOMALY,BSTAR,MEAN_MOTION_DOT,MEAN_MOTION_DDOT,TLE_LINE0,TLE_LINE1,TLE_LINE2,SEMIMAJOR_AXIS,PERIOD,APOGEE,PERIGEE,DECAYED
52114.0,STARLINK-3737,PAYLOAD,2023-10-08 10:33:47,15.08839786,0.0001375,53.2172,84.1844,87.8656,272.2493,8.8007e-05,1.113e-05,0.0,0 STARLINK-3737,1 52114U 22029AC  23281.44013036  .00001113  00000-0  88007-4 0  9998,2 52114  53.2172  84.1844 0001375  87.8656 272.2493 15.08839786 87458,6917.881,95.438,540.697,538.795,0.0
52114.0,STARLINK-3737,PAYLOAD,2023-10-08 20:06:05,15.08848524,0.0001503,53.2177,82.3995,81.3814,278.7349,0.00021402,3.121e-05,0.0,0 STARLINK-3737,1 52114U 22029AC  23281.83756758  .00003121  00000-0  21402-3 0  9992,2 52114  53.2177  82.3995 0001503  81.3814 278.7349 15.08848524 87505,6917.854,95.437,540.759,538.68,0.0
52114.0,STARLINK-3737,PAYLOAD,2023-10-09 10:24:34,15.08840933,0.0001462,53.2167,79.7217,89.5032,270.6128,-1.6928e-05,-5.57e-06,0.0,0 STARLINK-3737,1 52114U 22029AC  23282.43373076 -.00000557  00000-0 -16928-4 0  9997,2 52114  53.2167  79.7217 0001462  89.5032 270.6128 15.08840933 87598,6917.878,95.437,540.754,538.731,0.0
52114.0,STARLINK-3737,PAYLOAD,2023-10-09 16:46:06,15.08845452,0.0001444,53.2166,78.5326,91.4742,268.6415,6.8166e-05,7.97e-06,0.0,0 STARLINK-3737,1 52114U 22029AC  23282.69868811  .00000797  00000-0  68166-4 0  9996,2 52114  53.2166  78.5326 0001444  91.4742 268.6415 15.08845452 87648,6917.864,95.437,540.728,538.73,0.0
52114.0,STARLINK-3737,PAYLOAD,2023-10-10 10:15:21,15.08846411,0.0001487,53.2163,75.2626,84.0691,276.047,0.00014784,2.066e-05,0.0,0 STARLINK-3737,1 52114U 22029AC  23283.42732894  .00002066  00000-0  14784-3 0  9996,2 52114  53.2163  75.2626 0001487  84.0691 276.0470 15.08846411 87741,6917.861,95.437,540.754,538.697,0.0
52114.0,STARLINK-3737,PAYLOAD,2023-10-10 16:36:53,15.08851849,0.0001422,53.2162,74.0726,86.5927,273.5227,0.00021985,3.214e-05,0.0,0 STARLINK-3737,1 52114U 22029AC  23283.69228546  .00003214  00000-0  21985-3 0  9996,2 52114  53.2162  74.0726 0001422  86.5927 273.5227 15.08851849 87783,6917.844,95.437,540.693,538.725,0.0
52114.0,STARLINK-3737,PAYLOAD,2023-10-11 10:06:08,15.08840023,0.0001527,53.2165,70.8021,92.2381,267.8786,0.00010677,1.412e-05,0.0,0 STARLINK-3737,1 52114U 22029AC  23284.42093175  .00001412  00000-0  10677-3 0  9990,2 52114  53.2165  70.8021 0001527  92.2381 267.8786 15.08840023 87904,6917.88,95.438,540.802,538.689,0.0
52114.0,STARLINK-3737,PAYLOAD,2023-10-11 13:16:54,15.08837958,0.0001574,53.217,70.2046,105.3117,254.8049,0.00012361,1.68e-05,0.0,0 STARLINK-3737,1 52114U 22029AC  23284.55341353  .00001680  00000-0  12361-3 0  9997,2 52114  53.2170  70.2046 0001574 105.3117 254.8049 15.08837958 87918,6917.887,95.438,540.841,538.663,0.0
52114.0,STARLINK-3737,PAYLOAD,2023-10-12 14:43:04,15.08844467,0.0001348,53.2181,65.4505,82.0983,278.0162,9.0992e-05,1.161e-05,0.0,0 STARLINK-3737,1 52114U 22029AC  23285.61325089  .00001161  00000-0  90992-4 0  9994,2 52114  53.2181  65.4505 0001348  82.0983 278.0162 15.08844467 88072,6917.867,95.437,540.664,538.799,0.0
52114.0,STARLINK-3737,PAYLOAD,2023-10-12 16:18:27,15.08848194,0.0001326,53.2174,65.1524,87.4446,272.6698,0.00016621,2.359e-05,0.0,0 STARLINK-3737,1 52114U 22029AC  23285.67948869  .00002359  00000-0  16621-3 0  9993,2 52114  53.2174  65.1524 0001326  87.4446 272.6698 15.08848194 88098,6917.855,95.437,540.638,538.803,0.0
52114.0,STARLINK-3737,PAYLOAD,2023-10-13 01:50:46,15.0884132,0.0001335,53.2185,63.3673,87.9988,272.1157,4.7046e-05,4.61e-06,0.0,0 STARLINK-3737,1 52114U 22029AC  23286.07693199  .00000461  00000-0  47046-4 0  9999,2 52114  53.2185  63.3673 0001335  87.9988 272.1157 15.08841320 88157,6917.876,95.437,540.665,538.818,0.0
52114.0,STARLINK-3737,PAYLOAD,2023-10-13 14:33:52,15.08842489,0.0001357,53.2175,60.9887,91.7176,268.3971,0.00022205,3.248e-05,0.0,0 STARLINK-3737,1 52114U 22029AC  23286.60685436  .00003248  00000-0  22205-3 0  9998,2 52114  53.2175  60.9887 0001357  91.7176 268.3971 15.08842489 88228,6917.873,95.437,540.677,538.799,0.0
52114.0,STARLINK-3737,PAYLOAD,2023-10-13 16:09:15,15.08844545,0.0001233,53.2172,60.6928,83.9527,276.1606,0.00024716,3.648e-05,0.0,0 STARLINK-3737,1 52114U 22029AC  23286.67309391  .00003648  00000-0  24716-3 0  9991,2 52114  53.2172  60.6928 0001233  83.9527 276.1606 15.08844545 88232,6917.866,95.437,540.584,538.879,0.0
52114.0,STARLINK-3737,PAYLOAD,2023-10-14 09:38:29,15.08843148,0.0001329,53.2173,57.4217,86.8881,273.2263,4.4921e-05,4.27e-06,0.0,0 STARLINK-3737,1 52114U 22029AC  23287.40173336  .00000427  00000-0  44921-4 0  9994,2 52114  53.2173  57.4217 0001329  86.8881 273.2263 15.08843148 88357,6917.871,95.437,540.655,538.816,0.0
52114.0,STARLINK-3737,PAYLOAD,2023-10-14 14:24:38,15.08847832,0.0001364,53.218,56.5285,82.152,277.9627,0.00014301,1.989e-05,0.0,0 STARLINK-3737,1 52114U 22029AC  23287.60045131  .00001989  00000-0  14301-3 0  9999,2 52114  53.2180  56.5285 0001364  82.1520 277.9627 15.08847832 88379,6917.856,95.437,540.665,538.778,0.0
52114.0,STARLINK-3737,PAYLOAD,2023-10-14 16:00:02,15.08850134,0.0001362,53.2177,56.2317,81.9318,278.1829,0.00025202,3.726e-05,0.0,0 STARLINK-3737,1 52114U 22029AC  23287.66669035  .00003726  00000-0  25202-3 0  9993,2 52114  53.2177  56.2317 0001362  81.9318 278.1829 15.08850134 88385,6917.849,95.437,540.657,538.772,0.0
52114.0,STARLINK-3737,PAYLOAD,2023-10-15 14:15:26,15.08832754,0.0001446,53.2175,52.0695,90.5517,269.5641,-5.3074e-05,-1.132e-05,0.0,0 STARLINK-3737,1 52114U 22029AC  23288.59406027 -.00001132  00000-0 -53074-4 0  9996,2 52114  53.2175  52.0695 0001446  90.5517 269.5641 15.08832754 88526,6917.903,95.438,540.768,538.767,0.0
52114.0,STARLINK-3737,PAYLOAD,2023-10-15 17:26:13,15.08838775,0.0001539,53.2181,51.475,88.1659,271.951,7.5343e-05,9.11e-06,0.0,0 STARLINK-3737,1 52114U 22029AC  23288.72654050  .00000911  00000-0  75343-4 0  9997,2 52114  53.2181  51.4750 0001539  88.1659 271.9510 15.08838775 88555,6917.884,95.438,540.814,538.684,0.0
52114.0,STARLINK-3737,PAYLOAD,2023-10-16 14:06:13,15.08846667,0.0001616,53.2181,47.6088,84.6103,275.5074,0.0002943,4.4e-05,0.0,0 STARLINK-3737,1 52114U 22029AC  23289.58766041  .00004400  00000-0  29430-3 0  9998,2 52114  53.2181  47.6088 0001616  84.6103 275.5074 15.08846667 88674,6917.86,95.437,540.843,538.607,0.0
52114.0,STARLINK-3737,PAYLOAD,2023-10-16 17:17:00,15.08851772,0.0001684,53.2184,47.012,85.8994,274.2191,0.00061208,9.47e-05,0.0,0 STARLINK-3737,1 52114U 22029AC  23289.72014009  .00009470  00000-0  61208-3 0  9995,2 52114  53.2184  47.0120 0001684  85.8994 274.2191 15.08851772 88695,6917.844,95.437,540.874,538.544,0.0
52114.0,STARLINK-3737,PAYLOAD,2023-10-17 12:21:37,15.08845053,0.0001901,53.2196,43.4421,70.3288,289.7909,0.00030051,4.498e-05,0.0,0 STARLINK-3737,1 52114U 22029AC  23290.51502288  .00004498  00000-0  30051-3 0  9992,2 52114  53.2196  43.4421 0001901  70.3288 289.7909 15.08845053 88827,6917.865,95.437,541.045,538.415,0.0
52114.0,STARLINK-3737,PAYLOAD,2023-10-17 13:57:00,15.08847431,0.0001623,53.2188,43.1475,101.8297,258.2877,0.00030975,4.646e-05,0.0,0 STARLINK-3737,1 52114U 22029AC  23290.58126027  .00004646  00000-0  30975-3 0  9992,2 52114  53.2188  43.1475 0001623 101.8297 258.2877 15.08847431 88822,6917.858,95.437,540.845,538.6,0.0
52114.0,STARLINK-3737,PAYLOAD,2023-10-18 01:04:42,15.08844458,0.0002041,53.2197,41.0643,92.2189,267.9036,0.00021513,3.138e-05,0.0,0 STARLINK-3737,1 52114U 22029AC  23291.04494081  .00003138  00000-0  21513-3 0  9995,2 52114  53.2197  41.0643 0002041  92.2189 267.9036 15.08844458 88891,6917.867,95.437,541.144,538.32,0.0
52114.0,STARLINK-3737,PAYLOAD,2023-10-18 13:47:47,15.08855951,0.0001821,53.2178,38.6851,90.2561,269.864,0.0005934,9.173e-05,0.0,0 STARLINK-3737,1 52114U 22029AC  23291.57485649  .00009173  00000-0  59340-3 0  9997,2 52114  53.2178  38.6851 0001821  90.2561 269.8640 15.08855951 88982,6917.832,95.437,540.956,538.437,0.0
52114.0,STARLINK-3737,PAYLOAD,2023-10-19 12:03:11,15.08853138,0.0001567,53.2173,34.5241,89.4616,270.6555,0.00031774,4.774e-05,0.0,0 STARLINK-3737,1 52114U 22029AC  23292.50221322  .00004774  00000-0  31774-3 0  9990,2 52114  53.2173  34.5241 0001567  89.4616 270.6555 15.08853138 89120,6917.84,95.437,540.789,538.621,0.0
52114.0,STARLINK-3737,PAYLOAD,2023-10-19 16:49:20,15.08856856,0.0001664,53.2161,33.6306,91.5236,268.5946,0.00035235,5.327e-05,0.0,0 STARLINK-3737,1 52114U 22029AC  23292.70093032  .00005327  00000-0  35235-3 0  9998,2 52114  53.2161  33.6306 0001664  91.5236 268.5946 15.08856856 89141,6917.829,95.436,540.845,538.543,0.0
52114.0,STARLINK-3737,PAYLOAD,2023-10-20 11:53:58,15.0883137,0.0001664,53.2174,30.0639,105.7848,254.3328,-0.00013594,-2.45e-05,0.0,0 STARLINK-3737,1 52114U 22029AC  23293.49582102 -.00002450  00000-0 -13594-3 0  9996,2 52114  53.2174  30.0639 0001664 105.7848 254.3328 15.08831370 89277,6917.907,95.438,540.923,538.621,0.0
52114.0,STARLINK-3737,PAYLOAD,2023-10-21 10:09:22,15.08841744,0.0001637,53.2178,25.9032,111.9514,248.1652,0.0001944,2.807e-05,0.0,0 STARLINK-3737,1 52114U 22029AC  23294.42318241  .00002807  00000-0  19440-3 0  9991,2 52114  53.2178  25.9032 0001637 111.9514 248.1652 15.08841744 89413,6917.875,95.437,540.873,538.608,0.0
52114.0,STARLINK-3737,PAYLOAD,2023-10-21 13:20:09,15.08843741,0.0001368,53.2176,25.3108,98.8233,261.2915,0.00023913,3.52e-05,0.0,0 STARLINK-3737,1 52114U 22029AC  23294.55566237  .00003520  00000-0  23913-3 0  9998,2 52114  53.2176  25.3108 0001368  98.8233 261.2915 15.08843741 89429,6917.869,95.437,540.68,538.788,0.0
52114.0,STARLINK-3737,PAYLOAD,2023-10-21 16:30:55,15.08851326,0.0001335,53.2171,24.7125,86.0082,274.1062,0.00061639,9.539e-05,0.0,0 STARLINK-3737,1 52114U 22029AC  23294.68814007  .00009539  00000-0  61639-3 0  9996,2 52114  53.2171  24.7125 0001335  86.0082 274.1062 15.08851326 89447,6917.846,95.437,540.634,538.787,0.0
